ORBCOMM FM114           
1 41179U 15081A   25172.31882898  .00000278  00000+0  96091-4 0  9996
2 41179  47.0028 267.3380 0001922 340.0305  20.0505 14.58217896505073
ORBCOMM FM119           
1 41180U 15081B   25172.37554855  .00000247  00000+0  89564-4 0  9996
2 41180  46.9985 176.3812 0000541 359.1000   0.9884 14.58148973506339
ORBCOMM FM105           
1 41181U 15081C   25172.30061794  .00000057  00000+0  60651-4 0  9990
2 41181  46.9995 182.0814 0002352 315.0336  45.0354 14.45223725501345
ORBCOMM FM118           
1 41183U 15081E   25172.27469202  .00000500  00000+0  14335-3 0  9994
2 41183  47.0043 267.3288 0004233 183.3025 176.7834 14.58440804505045
ORBCOMM FM113           
1 41185U 15081G   25172.19096882  .00000487  00000+0  14114-3 0  9996
2 41185  46.9989 176.7213 0001234 335.3330  24.7497 14.58189774506236
